CCSDS_OMM_VERS = 2.0
CREATION_DATE  = 
ORIGINATOR     = 

OBJECT_NAME    = CZ-2C R/B
OBJECT_ID      = 2022-132E
CENTER_NAME    = EARTH
REF_FRAME      = TEME
TIME_SYSTEM    = UTC
MEAN_ELEMENT_THEORY = SGP/SGP4

EPOCH          = 2026-02-19T23:58:53.447808
MEAN_MOTION    = 15.60231946
ECCENTRICITY   = .0020114
INCLINATION    = 97.2959
RA_OF_ASC_NODE = 53.8029
ARG_OF_PERICENTER = 148.8673
MEAN_ANOMALY   = 211.3780

EPHEMERIS_TYPE = 0
CLASSIFICATION_TYPE = U
NORAD_CAT_ID   = 54039
ELEMENT_SET_NO = 999
REV_AT_EPOCH   = 18761
BSTAR          = .43028E-3
MEAN_MOTION_DOT = .35386E-3
MEAN_MOTION_DDOT = 0

CCSDS_OMM_VERS = 2.0
CREATION_DATE  = 
ORIGINATOR     = 

OBJECT_NAME    = GSLV R/B
OBJECT_ID      = 2022-138AN
CENTER_NAME    = EARTH
REF_FRAME      = TEME
TIME_SYSTEM    = UTC
MEAN_ELEMENT_THEORY = SGP/SGP4

EPOCH          = 2026-02-19T20:52:02.354016
MEAN_MOTION    = 14.96630615
ECCENTRICITY   = .0020415
INCLINATION    = 87.3881
RA_OF_ASC_NODE = 172.3250
ARG_OF_PERICENTER = 210.9359
MEAN_ANOMALY   = 149.0671

EPHEMERIS_TYPE = 0
CLASSIFICATION_TYPE = U
NORAD_CAT_ID   = 54149
ELEMENT_SET_NO = 999
REV_AT_EPOCH   = 18126
BSTAR          = .31429E-3
MEAN_MOTION_DOT = .3623E-4
MEAN_MOTION_DDOT = 0

CCSDS_OMM_VERS = 2.0
CREATION_DATE  = 
ORIGINATOR     = 

OBJECT_NAME    = XRISM
OBJECT_ID      = 2023-137A
CENTER_NAME    = EARTH
REF_FRAME      = TEME
TIME_SYSTEM    = UTC
MEAN_ELEMENT_THEORY = SGP/SGP4

EPOCH          = 2026-02-20T00:10:29.220096
MEAN_MOTION    = 15.11266395
ECCENTRICITY   = .000835
INCLINATION    = 31.0031
RA_OF_ASC_NODE = 38.0092
ARG_OF_PERICENTER = 222.9726
MEAN_ANOMALY   = 137.0260

EPHEMERIS_TYPE = 0
CLASSIFICATION_TYPE = U
NORAD_CAT_ID   = 57800
ELEMENT_SET_NO = 999
REV_AT_EPOCH   = 13511
BSTAR          = .27941E-3
MEAN_MOTION_DOT = .4918E-4
MEAN_MOTION_DDOT = 0

CCSDS_OMM_VERS = 2.0
CREATION_DATE  = 
ORIGINATOR     = 

OBJECT_NAME    = ACS3
OBJECT_ID      = 2024-077B
CENTER_NAME    = EARTH
REF_FRAME      = TEME
TIME_SYSTEM    = UTC
MEAN_ELEMENT_THEORY = SGP/SGP4

EPOCH          = 2026-02-19T20:26:11.443776
MEAN_MOTION    = 13.88807433
ECCENTRICITY   = .00492018
INCLINATION    = 97.2171
RA_OF_ASC_NODE = 355.9744
ARG_OF_PERICENTER = 128.4585
MEAN_ANOMALY   = 232.1009

EPHEMERIS_TYPE = 0
CLASSIFICATION_TYPE = U
NORAD_CAT_ID   = 59588
ELEMENT_SET_NO = 999
REV_AT_EPOCH   = 9172
BSTAR          = .12651125E-1
MEAN_MOTION_DOT = .15424E-3
MEAN_MOTION_DDOT = 0

CCSDS_OMM_VERS = 2.0
CREATION_DATE  = 
ORIGINATOR     = 

OBJECT_NAME    = SZ-21 MODULE
OBJECT_ID      = 2025-246C
CENTER_NAME    = EARTH
REF_FRAME      = TEME
TIME_SYSTEM    = UTC
MEAN_ELEMENT_THEORY = SGP/SGP4

EPOCH          = 2026-02-20T01:07:01.388640
MEAN_MOTION    = 15.67142085
ECCENTRICITY   = .0001754
INCLINATION    = 41.4757
RA_OF_ASC_NODE = 311.8512
ARG_OF_PERICENTER = 295.1642
MEAN_ANOMALY   = 64.9017

EPHEMERIS_TYPE = 0
CLASSIFICATION_TYPE = U
NORAD_CAT_ID   = 66515
ELEMENT_SET_NO = 999
REV_AT_EPOCH   = 1530
BSTAR          = .28694E-3
MEAN_MOTION_DOT = .31392E-3
MEAN_MOTION_DDOT = 0

