CZ-2C R/B               
1 54039U 22132E   26050.99922972  .00035386  00000+0  43028-3 0  9997
2 54039  97.2959  53.8029 0020114 148.8673 211.3780 15.60231946187618
GSLV R/B                
1 54149U 22138AN  26050.86947169  .00003623  00000+0  31429-3 0  9997
2 54149  87.3881 172.3250 0020415 210.9359 149.0671 14.96630615181268
XRISM                   
1 57800U 23137A   26051.00728264  .00004918  00000+0  27941-3 0  9996
2 57800  31.0031  38.0092 0008350 222.9726 137.0260 15.11266395135117
ACS3                    
1 59588U 24077B   26050.85152134  .00015424  00000+0  12651-1 0  9998
2 59588  97.2171 355.9744 0049201 128.4585 232.1009 13.88807433 91721
SZ-21 MODULE            
1 66515U 25246C   26051.04654385  .00031392  00000+0  28694-3 0  9990
2 66515  41.4757 311.8512 0001754 295.1642  64.9017 15.67142085 15305
